{
"type": "FeatureCollection",
"name": "lake_erosion_rings",
"crs": { "type": "name", "properties": { "name": "urn:ogc:def:crs:EPSG::32633" } },
"features": [
{ "type": "Feature", "properties": { "ring": "Border Ring (<= 40 m, 39 px)", "code": 1, "n_pixels": 39 }, "geometry": { "type": "Polygon", "coordinates": [ [ [ 588840.0, 5846880.0 ], [ 588840.0, 5846840.0 ], [ 588880.0, 5846840.0 ], [ 588880.0, 5846880.0 ], [ 588840.0, 5846880.0 ] ] ] } },
{ "type": "Feature", "properties": { "ring": "Border Ring (<= 40 m, 39 px)", "code": 1, "n_pixels": 39 }, "geometry": { "type": "Polygon", "coordinates": [ [ [ 588880.0, 5846840.0 ], [ 588880.0, 5846800.0 ], [ 588920.0, 5846800.0 ], [ 588920.0, 5846840.0 ], [ 588880.0, 5846840.0 ] ] ] } },
{ "type": "Feature", "properties": { "ring": "Border Ring (<= 40 m, 39 px)", "code": 1, "n_pixels": 39 }, "geometry": { "type": "Polygon", "coordinates": [ [ [ 588920.0, 5846800.0 ], [ 588920.0, 5846760.0 ], [ 589000.0, 5846760.0 ], [ 589000.0, 5846800.0 ], [ 588920.0, 5846800.0 ] ] ] } },
{ "type": "Feature", "properties": { "ring": "Border Ring (<= 40 m, 39 px)", "code": 1, "n_pixels": 39 }, "geometry": { "type": "Polygon", "coordinates": [ [ [ 588600.0, 5846760.0 ], [ 588600.0, 5846720.0 ], [ 588640.0, 5846720.0 ], [ 588640.0, 5846760.0 ], [ 588600.0, 5846760.0 ] ] ] } },
{ "type": "Feature", "properties": { "ring": "Border Ring (<= 40 m, 39 px)", "code": 1, "n_pixels": 39 }, "geometry": { "type": "Polygon", "coordinates": [ [ [ 589000.0, 5846760.0 ], [ 589000.0, 5846720.0 ], [ 589040.0, 5846720.0 ], [ 589040.0, 5846760.0 ], [ 589000.0, 5846760.0 ] ] ] } },
{ "type": "Feature", "properties": { "ring": "Border Ring (<= 40 m, 39 px)", "code": 1, "n_pixels": 39 }, "geometry": { "type": "Polygon", "coordinates": [ [ [ 588640.0, 5846720.0 ], [ 588640.0, 5846680.0 ], [ 588680.0, 5846680.0 ], [ 588680.0, 5846720.0 ], [ 588640.0, 5846720.0 ] ] ] } },
{ "type": "Feature", "properties": { "ring": "Border Ring (<= 40 m, 39 px)", "code": 1, "n_pixels": 39 }, "geometry": { "type": "Polygon", "coordinates": [ [ [ 588840.0, 5846720.0 ], [ 588840.0, 5846680.0 ], [ 588880.0, 5846680.0 ], [ 588880.0, 5846720.0 ], [ 588840.0, 5846720.0 ] ] ] } },
{ "type": "Feature", "properties": { "ring": "Border Ring (<= 40 m, 39 px)", "code": 1, "n_pixels": 39 }, "geometry": { "type": "Polygon", "coordinates": [ [ [ 588720.0, 5846880.0 ], [ 588720.0, 5846800.0 ], [ 588640.0, 5846800.0 ], [ 588640.0, 5846760.0 ], [ 588760.0, 5846760.0 ], [ 588760.0, 5846640.0 ], [ 588800.0, 5846640.0 ], [ 588800.0, 5846720.0 ], [ 588840.0, 5846720.0 ], [ 588840.0, 5846840.0 ], [ 588760.0, 5846840.0 ], [ 588760.0, 5846880.0 ], [ 588720.0, 5846880.0 ] ], [ [ 588760.0, 5846800.0 ], [ 588800.0, 5846800.0 ], [ 588800.0, 5846760.0 ], [ 588760.0, 5846760.0 ], [ 588760.0, 5846800.0 ] ] ] } },
{ "type": "Feature", "properties": { "ring": "Border Ring (<= 40 m, 39 px)", "code": 1, "n_pixels": 39 }, "geometry": { "type": "Polygon", "coordinates": [ [ [ 589040.0, 5846720.0 ], [ 589040.0, 5846640.0 ], [ 589080.0, 5846640.0 ], [ 589080.0, 5846720.0 ], [ 589040.0, 5846720.0 ] ] ] } },
{ "type": "Feature", "properties": { "ring": "Border Ring (<= 40 m, 39 px)", "code": 1, "n_pixels": 39 }, "geometry": { "type": "Polygon", "coordinates": [ [ [ 588680.0, 5846680.0 ], [ 588680.0, 5846600.0 ], [ 588720.0, 5846600.0 ], [ 588720.0, 5846680.0 ], [ 588680.0, 5846680.0 ] ] ] } },
{ "type": "Feature", "properties": { "ring": "Border Ring (<= 40 m, 39 px)", "code": 1, "n_pixels": 39 }, "geometry": { "type": "Polygon", "coordinates": [ [ [ 589000.0, 5846640.0 ], [ 589000.0, 5846560.0 ], [ 589040.0, 5846560.0 ], [ 589040.0, 5846640.0 ], [ 589000.0, 5846640.0 ] ] ] } },
{ "type": "Feature", "properties": { "ring": "Border Ring (<= 40 m, 39 px)", "code": 1, "n_pixels": 39 }, "geometry": { "type": "Polygon", "coordinates": [ [ [ 588720.0, 5846600.0 ], [ 588720.0, 5846560.0 ], [ 588800.0, 5846560.0 ], [ 588800.0, 5846600.0 ], [ 588720.0, 5846600.0 ] ] ] } },
{ "type": "Feature", "properties": { "ring": "Border Ring (<= 40 m, 39 px)", "code": 1, "n_pixels": 39 }, "geometry": { "type": "Polygon", "coordinates": [ [ [ 588880.0, 5846680.0 ], [ 588880.0, 5846640.0 ], [ 588800.0, 5846640.0 ], [ 588800.0, 5846600.0 ], [ 588840.0, 5846600.0 ], [ 588840.0, 5846560.0 ], [ 588800.0, 5846560.0 ], [ 588800.0, 5846520.0 ], [ 589000.0, 5846520.0 ], [ 589000.0, 5846560.0 ], [ 588960.0, 5846560.0 ], [ 588960.0, 5846600.0 ], [ 588920.0, 5846600.0 ], [ 588920.0, 5846680.0 ], [ 588880.0, 5846680.0 ] ], [ [ 588880.0, 5846600.0 ], [ 588920.0, 5846600.0 ], [ 588920.0, 5846560.0 ], [ 588880.0, 5846560.0 ], [ 588880.0, 5846600.0 ] ] ] } },
{ "type": "Feature", "properties": { "ring": "Interior Lake (> 40 m, 26 px)", "code": 2, "n_pixels": 26 }, "geometry": { "type": "Polygon", "coordinates": [ [ [ 588640.0, 5846760.0 ], [ 588640.0, 5846720.0 ], [ 588680.0, 5846720.0 ], [ 588680.0, 5846680.0 ], [ 588720.0, 5846680.0 ], [ 588720.0, 5846600.0 ], [ 588800.0, 5846600.0 ], [ 588800.0, 5846640.0 ], [ 588760.0, 5846640.0 ], [ 588760.0, 5846760.0 ], [ 588640.0, 5846760.0 ] ] ] } },
{ "type": "Feature", "properties": { "ring": "Interior Lake (> 40 m, 26 px)", "code": 2, "n_pixels": 26 }, "geometry": { "type": "Polygon", "coordinates": [ [ [ 588840.0, 5846840.0 ], [ 588840.0, 5846720.0 ], [ 588880.0, 5846720.0 ], [ 588880.0, 5846680.0 ], [ 588920.0, 5846680.0 ], [ 588920.0, 5846600.0 ], [ 588960.0, 5846600.0 ], [ 588960.0, 5846560.0 ], [ 589000.0, 5846560.0 ], [ 589000.0, 5846640.0 ], [ 589040.0, 5846640.0 ], [ 589040.0, 5846720.0 ], [ 589000.0, 5846720.0 ], [ 589000.0, 5846760.0 ], [ 588920.0, 5846760.0 ], [ 588920.0, 5846800.0 ], [ 588880.0, 5846800.0 ], [ 588880.0, 5846840.0 ], [ 588840.0, 5846840.0 ] ] ] } },
{ "type": "Feature", "properties": { "ring": "Interior Lake (> 40 m, 26 px)", "code": 2, "n_pixels": 26 }, "geometry": { "type": "Polygon", "coordinates": [ [ [ 588800.0, 5846600.0 ], [ 588800.0, 5846560.0 ], [ 588840.0, 5846560.0 ], [ 588840.0, 5846600.0 ], [ 588800.0, 5846600.0 ] ] ] } },
{ "type": "Feature", "properties": { "ring": "Deep Center (> 80 m, 4 px)", "code": 3, "n_pixels": 4 }, "geometry": { "type": "Polygon", "coordinates": [ [ [ 588880.0, 5846760.0 ], [ 588880.0, 5846720.0 ], [ 588920.0, 5846720.0 ], [ 588920.0, 5846760.0 ], [ 588880.0, 5846760.0 ] ] ] } },
{ "type": "Feature", "properties": { "ring": "Deep Center (> 80 m, 4 px)", "code": 3, "n_pixels": 4 }, "geometry": { "type": "Polygon", "coordinates": [ [ [ 588920.0, 5846720.0 ], [ 588920.0, 5846680.0 ], [ 588960.0, 5846680.0 ], [ 588960.0, 5846640.0 ], [ 589000.0, 5846640.0 ], [ 589000.0, 5846720.0 ], [ 588920.0, 5846720.0 ] ] ] } }
]
}
