{
"type": "FeatureCollection",
"name": "marginal_27_pixels",
"crs": { "type": "name", "properties": { "name": "urn:ogc:def:crs:EPSG::32633" } },
"features": [
{ "type": "Feature", "properties": { "name": "Surviving Margin Pixel (gamma >= 0.7)", "distance_to_boundary_m": -40.0 }, "geometry": { "type": "Polygon", "coordinates": [ [ [ 588640.0, 5847200.0 ], [ 588640.0, 5847160.0 ], [ 588680.0, 5847160.0 ], [ 588680.0, 5847200.0 ], [ 588640.0, 5847200.0 ] ] ] } },
{ "type": "Feature", "properties": { "name": "Surviving Margin Pixel (gamma >= 0.7)", "distance_to_boundary_m": -40.0 }, "geometry": { "type": "Polygon", "coordinates": [ [ [ 587720.0, 5847160.0 ], [ 587720.0, 5847080.0 ], [ 587760.0, 5847080.0 ], [ 587760.0, 5847160.0 ], [ 587720.0, 5847160.0 ] ] ] } },
{ "type": "Feature", "properties": { "name": "Surviving Margin Pixel (gamma >= 0.7)", "distance_to_boundary_m": -40.0 }, "geometry": { "type": "Polygon", "coordinates": [ [ [ 588720.0, 5847120.0 ], [ 588720.0, 5847080.0 ], [ 588800.0, 5847080.0 ], [ 588800.0, 5847120.0 ], [ 588720.0, 5847120.0 ] ] ] } },
{ "type": "Feature", "properties": { "name": "Surviving Margin Pixel (gamma >= 0.7)", "distance_to_boundary_m": -40.0 }, "geometry": { "type": "Polygon", "coordinates": [ [ [ 588280.0, 5847120.0 ], [ 588280.0, 5847040.0 ], [ 588320.0, 5847040.0 ], [ 588320.0, 5847120.0 ], [ 588280.0, 5847120.0 ] ] ] } },
{ "type": "Feature", "properties": { "name": "Surviving Margin Pixel (gamma >= 0.7)", "distance_to_boundary_m": -40.0 }, "geometry": { "type": "Polygon", "coordinates": [ [ [ 588520.0, 5847120.0 ], [ 588520.0, 5847040.0 ], [ 588560.0, 5847040.0 ], [ 588560.0, 5847120.0 ], [ 588520.0, 5847120.0 ] ] ] } },
{ "type": "Feature", "properties": { "name": "Surviving Margin Pixel (gamma >= 0.7)", "distance_to_boundary_m": -40.0 }, "geometry": { "type": "Polygon", "coordinates": [ [ [ 588800.0, 5847080.0 ], [ 588800.0, 5847040.0 ], [ 588840.0, 5847040.0 ], [ 588840.0, 5847080.0 ], [ 588800.0, 5847080.0 ] ] ] } },
{ "type": "Feature", "properties": { "name": "Surviving Margin Pixel (gamma >= 0.7)", "distance_to_boundary_m": -40.0 }, "geometry": { "type": "Polygon", "coordinates": [ [ [ 588120.0, 5846920.0 ], [ 588120.0, 5846880.0 ], [ 588160.0, 5846880.0 ], [ 588160.0, 5846840.0 ], [ 588240.0, 5846840.0 ], [ 588240.0, 5846920.0 ], [ 588120.0, 5846920.0 ] ] ] } },
{ "type": "Feature", "properties": { "name": "Surviving Margin Pixel (gamma >= 0.7)", "distance_to_boundary_m": -40.0 }, "geometry": { "type": "Polygon", "coordinates": [ [ [ 589080.0, 5846880.0 ], [ 589080.0, 5846840.0 ], [ 589120.0, 5846840.0 ], [ 589120.0, 5846880.0 ], [ 589080.0, 5846880.0 ] ] ] } },
{ "type": "Feature", "properties": { "name": "Surviving Margin Pixel (gamma >= 0.7)", "distance_to_boundary_m": -40.0 }, "geometry": { "type": "Polygon", "coordinates": [ [ [ 587760.0, 5846840.0 ], [ 587760.0, 5846800.0 ], [ 587800.0, 5846800.0 ], [ 587800.0, 5846840.0 ], [ 587760.0, 5846840.0 ] ] ] } },
{ "type": "Feature", "properties": { "name": "Surviving Margin Pixel (gamma >= 0.7)", "distance_to_boundary_m": -40.0 }, "geometry": { "type": "Polygon", "coordinates": [ [ [ 589120.0, 5846840.0 ], [ 589120.0, 5846800.0 ], [ 589160.0, 5846800.0 ], [ 589160.0, 5846840.0 ], [ 589120.0, 5846840.0 ] ] ] } },
{ "type": "Feature", "properties": { "name": "Surviving Margin Pixel (gamma >= 0.7)", "distance_to_boundary_m": -40.0 }, "geometry": { "type": "Polygon", "coordinates": [ [ [ 589160.0, 5846760.0 ], [ 589160.0, 5846720.0 ], [ 589200.0, 5846720.0 ], [ 589200.0, 5846760.0 ], [ 589160.0, 5846760.0 ] ] ] } },
{ "type": "Feature", "properties": { "name": "Surviving Margin Pixel (gamma >= 0.7)", "distance_to_boundary_m": -40.0 }, "geometry": { "type": "Polygon", "coordinates": [ [ [ 588400.0, 5846600.0 ], [ 588400.0, 5846560.0 ], [ 588480.0, 5846560.0 ], [ 588480.0, 5846600.0 ], [ 588400.0, 5846600.0 ] ] ] } },
{ "type": "Feature", "properties": { "name": "Surviving Margin Pixel (gamma >= 0.7)", "distance_to_boundary_m": -40.0 }, "geometry": { "type": "Polygon", "coordinates": [ [ [ 588520.0, 5846520.0 ], [ 588520.0, 5846480.0 ], [ 588560.0, 5846480.0 ], [ 588560.0, 5846520.0 ], [ 588520.0, 5846520.0 ] ] ] } },
{ "type": "Feature", "properties": { "name": "Surviving Margin Pixel (gamma >= 0.7)", "distance_to_boundary_m": -40.0 }, "geometry": { "type": "Polygon", "coordinates": [ [ [ 588520.0, 5846440.0 ], [ 588520.0, 5846400.0 ], [ 588560.0, 5846400.0 ], [ 588560.0, 5846440.0 ], [ 588520.0, 5846440.0 ] ] ] } },
{ "type": "Feature", "properties": { "name": "Surviving Margin Pixel (gamma >= 0.7)", "distance_to_boundary_m": -40.0 }, "geometry": { "type": "Polygon", "coordinates": [ [ [ 588600.0, 5846440.0 ], [ 588600.0, 5846400.0 ], [ 588640.0, 5846400.0 ], [ 588640.0, 5846440.0 ], [ 588600.0, 5846440.0 ] ] ] } },
{ "type": "Feature", "properties": { "name": "Surviving Margin Pixel (gamma >= 0.7)", "distance_to_boundary_m": -40.0 }, "geometry": { "type": "Polygon", "coordinates": [ [ [ 588240.0, 5846360.0 ], [ 588240.0, 5846320.0 ], [ 588280.0, 5846320.0 ], [ 588280.0, 5846360.0 ], [ 588240.0, 5846360.0 ] ] ] } },
{ "type": "Feature", "properties": { "name": "Surviving Margin Pixel (gamma >= 0.7)", "distance_to_boundary_m": -40.0 }, "geometry": { "type": "Polygon", "coordinates": [ [ [ 588360.0, 5846280.0 ], [ 588360.0, 5846200.0 ], [ 588400.0, 5846200.0 ], [ 588400.0, 5846280.0 ], [ 588360.0, 5846280.0 ] ] ] } }
]
}
